{
  "type": "FeatureCollection",
  "name": "Berlin TXL project boundary",
  "features": [
    {
      "type": "Feature",
      "properties": {
        "name": "Berlin TXL project boundary",
        "source": "Tegel Projekt GmbH / Berlin TXL",
        "license": "CC BY 4.0"
      },
      "geometry": {
        "type": "Polygon",
        "coordinates": [
          [
            [13.32791, 52.564022],
            [13.327061, 52.564303],
            [13.325827, 52.564589],
            [13.325319, 52.563801],
            [13.324919, 52.563905],
            [13.324808, 52.563732],
            [13.324416, 52.563836],
            [13.323916, 52.562781],
            [13.315501, 52.564263],
            [13.316779, 52.565657],
            [13.31552, 52.565894],
            [13.314431, 52.566164],
            [13.313198, 52.566519],
            [13.311238, 52.566966],
            [13.311962, 52.567931],
            [13.310993, 52.568014],
            [13.306519, 52.56811],
            [13.305633, 52.568182],
            [13.305972, 52.56765],
            [13.30632, 52.567183],
            [13.306686, 52.566788],
            [13.307032, 52.566489],
            [13.306892, 52.566419],
            [13.30578, 52.566377],
            [13.303852, 52.566208],
            [13.303727, 52.566695],
            [13.303572, 52.566774],
            [13.303507, 52.567011],
            [13.300636, 52.566725],
            [13.300822, 52.566021],
            [13.300423, 52.565981],
            [13.300429, 52.566297],
            [13.299626, 52.566219],
            [13.2995, 52.566275],
            [13.299299, 52.566256],
            [13.299422, 52.565789],
            [13.298489, 52.565697],
            [13.298505, 52.565637],
            [13.29763, 52.565551],
            [13.297381, 52.566503],
            [13.296381, 52.566395],
            [13.293533, 52.565853],
            [13.280699, 52.564031],
            [13.276163, 52.563585],
            [13.276169, 52.563548],
            [13.273522, 52.563293],
            [13.257357, 52.557963],
            [13.25635, 52.556928],
            [13.257173, 52.553563],
            [13.261817, 52.55402],
            [13.263599, 52.554027],
            [13.264473, 52.554309],
            [13.265307, 52.55449],
            [13.269094, 52.553858],
            [13.273365, 52.554272],
            [13.273724, 52.55413],
            [13.274141, 52.553174],
            [13.274968, 52.552871],
            [13.281831, 52.551705],
            [13.282531, 52.551836],
            [13.282692, 52.551545],
            [13.290364, 52.550159],
            [13.290057, 52.548991],
            [13.300709, 52.548823],
            [13.300844, 52.548989],
            [13.300962, 52.548953],
            [13.301006, 52.549],
            [13.301383, 52.54969],
            [13.301643, 52.550011],
            [13.301754, 52.550197],
            [13.302863, 52.551444],
            [13.305888, 52.554641],
            [13.305814, 52.554667],
            [13.307545, 52.556623],
            [13.307718, 52.55656],
            [13.308582, 52.557466],
            [13.30967, 52.557722],
            [13.313087, 52.558632],
            [13.317764, 52.55974],
            [13.31923, 52.55998],
            [13.323904, 52.560569],
            [13.324681, 52.560726],
            [13.325111, 52.560848],
            [13.325486, 52.560996],
            [13.32584, 52.561186],
            [13.32614, 52.5614],
            [13.326385, 52.561635],
            [13.32657, 52.561886],
            [13.326759, 52.562256],
            [13.326775, 52.562313],
            [13.326519, 52.562317],
            [13.326792, 52.562836],
            [13.327183, 52.563324],
            [13.32791, 52.564022]
          ]
        ]
      }
    }
  ]
}
