{
  "type": "FeatureCollection",
  "name": "Berlin TXL project areas",
  "source": "Tegel Projekt GmbH / Berlin TXL",
  "license": "CC BY 4.0",
  "features": [
    {
      "type": "Feature",
      "id": "b_teilraeume.2",
      "properties": { "gisid": 2, "teilraum": "Urban Tech Republic" },
      "geometry": {
        "type": "MultiPolygon",
        "coordinates": [
          [
            [
              [13.31020587, 52.5585332],
              [13.31002067, 52.55847593],
              [13.30983226, 52.55840493],
              [13.30965713, 52.55832804],
              [13.30949688, 52.55824613],
              [13.30934164, 52.5581552],
              [13.30920654, 52.55806455],
              [13.30908121, 52.55796839],
              [13.30896908, 52.55786862],
              [13.3087977, 52.5579295],
              [13.30886489, 52.5579998],
              [13.3087809, 52.55825637],
              [13.3041561, 52.55769373],
              [13.30432499, 52.55717816],
              [13.30148124, 52.55683215],
              [13.29937838, 52.55347135],
              [13.30380918, 52.55244132],
              [13.30286291, 52.55144425],
              [13.30224279, 52.55072685],
              [13.30187896, 52.5503122],
              [13.30180872, 52.55025309],
              [13.30174727, 52.55018878],
              [13.30170252, 52.55012203],
              [13.30164303, 52.55001056],
              [13.30138314, 52.54968966],
              [13.30100643, 52.54899989],
              [13.30100066, 52.54900168],
              [13.30096166, 52.5489534],
              [13.30084405, 52.54898884],
              [13.30070878, 52.54882258],
              [13.29005714, 52.54899049],
              [13.29036383, 52.55015896],
              [13.28395997, 52.55131055],
              [13.28269248, 52.55154519],
              [13.28265318, 52.55163135],
              [13.28253216, 52.55183571],
              [13.28183158, 52.55170454],
              [13.27869669, 52.552243],
              [13.27756848, 52.55243287],
              [13.27752593, 52.55259399],
              [13.27624923, 52.55280876],
              [13.27563995, 52.5551114],
              [13.27538084, 52.55508598],
              [13.27488489, 52.55696844],
              [13.27520101, 52.55699966],
              [13.27542099, 52.5572036],
              [13.27563959, 52.55734729],
              [13.27531415, 52.55857908],
              [13.28070798, 52.55911833],
              [13.28104471, 52.55886616],
              [13.28158612, 52.55891926],
              [13.28163986, 52.55887901],
              [13.28897539, 52.55959816],
              [13.28896375, 52.55964254],
              [13.29171549, 52.55991219],
              [13.29170601, 52.55986573],
              [13.29961499, 52.56064037],
              [13.29960312, 52.56068474],
              [13.30008364, 52.56073179],
              [13.3000955, 52.56068744],
              [13.3088922, 52.56154831],
              [13.30965584, 52.5586495],
              [13.30980414, 52.5586432],
              [13.30994082, 52.55862268],
              [13.31006998, 52.55858859],
              [13.31020186, 52.55853521],
              [13.31020587, 52.5585332]
            ]
          ]
        ]
      }
    },
    {
      "type": "Feature",
      "id": "b_teilraeume.3",
      "properties": { "gisid": 3, "teilraum": "Landschaftsraum" },
      "geometry": {
        "type": "MultiPolygon",
        "coordinates": [
          [
            [
              [13.30305156, 52.5609768],
              [13.3000955, 52.56068744],
              [13.30008364, 52.56073179],
              [13.29960312, 52.56068474],
              [13.29961499, 52.56064037],
              [13.29170601, 52.55986573],
              [13.29171549, 52.55991219],
              [13.28896375, 52.55964254],
              [13.28897539, 52.55959816],
              [13.28163986, 52.55887901],
              [13.28158612, 52.55891926],
              [13.28104471, 52.55886616],
              [13.28070798, 52.55911833],
              [13.27531415, 52.55857908],
              [13.27563959, 52.55734729],
              [13.27542099, 52.5572036],
              [13.27520101, 52.55699966],
              [13.27488489, 52.55696844],
              [13.27538084, 52.55508598],
              [13.27563995, 52.5551114],
              [13.27624923, 52.55280876],
              [13.27752593, 52.55259399],
              [13.27756848, 52.55243287],
              [13.27496805, 52.55287056],
              [13.27414207, 52.55317365],
              [13.27372512, 52.55412974],
              [13.27336586, 52.55427218],
              [13.26909195, 52.5538581],
              [13.26726274, 52.55415635],
              [13.26530668, 52.55448879],
              [13.26502492, 52.55443544],
              [13.26474751, 52.5543743],
              [13.26447337, 52.5543084],
              [13.26420536, 52.55423362],
              [13.26394316, 52.55415095],
              [13.26360184, 52.55402732],
              [13.26181808, 52.5540195],
              [13.25717519, 52.55356305],
              [13.25635322, 52.55692747],
              [13.25735911, 52.55796064],
              [13.26361136, 52.56002845],
              [13.2735227, 52.56329199],
              [13.27616873, 52.56354803],
              [13.27616255, 52.5635848],
              [13.2806993, 52.56403077],
              [13.2925714, 52.56572367],
              [13.29230357, 52.56508022],
              [13.29278563, 52.56325943],
              [13.30216383, 52.56416219],
              [13.30303921, 52.56102112],
              [13.30305156, 52.5609768]
            ]
          ]
        ]
      }
    },
    {
      "type": "Feature",
      "id": "b_teilraeume.5",
      "properties": { "gisid": 5, "teilraum": "Schumacher Quartier" },
      "geometry": {
        "type": "MultiPolygon",
        "coordinates": [
          [
            [
              [13.31079506, 52.56502458],
              [13.31094311, 52.56537308],
              [13.31290286, 52.56483865],
              [13.31334073, 52.56472321],
              [13.31405071, 52.56455238],
              [13.31477127, 52.56439887],
              [13.31539971, 52.56428069],
              [13.32391559, 52.56278129],
              [13.32441591, 52.56383561],
              [13.32491999, 52.56370273],
              [13.3250043, 52.56388212],
              [13.32531895, 52.56380125],
              [13.32579752, 52.56454328],
              [13.32626948, 52.56443325],
              [13.326909, 52.56427809],
              [13.3272107, 52.56419213],
              [13.32739859, 52.56412851],
              [13.32744993, 52.56410123],
              [13.32748819, 52.56406689],
              [13.32750514, 52.56404117],
              [13.32751464, 52.56401407],
              [13.3275164, 52.56398637],
              [13.3275045, 52.5639455],
              [13.32747593, 52.56390782],
              [13.32736875, 52.56380685],
              [13.32726258, 52.56373715],
              [13.32721601, 52.56369979],
              [13.32684739, 52.56334243],
              [13.32670618, 52.56319624],
              [13.32665249, 52.56313497],
              [13.32660466, 52.56307115],
              [13.32647762, 52.56286384],
              [13.32637099, 52.56267441],
              [13.32669281, 52.56266902],
              [13.32651871, 52.56231685],
              [13.32602679, 52.56232509],
              [13.32612173, 52.56228815],
              [13.32614568, 52.56226759],
              [13.32615128, 52.56223176],
              [13.32614838, 52.56217994],
              [13.32613813, 52.5621337],
              [13.32611995, 52.56208659],
              [13.32616349, 52.56207896],
              [13.32611016, 52.56198369],
              [13.32605621, 52.56190134],
              [13.32599315, 52.56181856],
              [13.32593183, 52.56175202],
              [13.32577445, 52.56161383],
              [13.32566667, 52.56152914],
              [13.32555079, 52.56144914],
              [13.32538519, 52.5613487],
              [13.32525198, 52.56127825],
              [13.32510022, 52.56120664],
              [13.32493934, 52.56114039],
              [13.32477301, 52.5610813],
              [13.32462182, 52.56103518],
              [13.32441343, 52.56097922],
              [13.32415961, 52.56092619],
              [13.3239883, 52.56090282],
              [13.32398938, 52.5609002],
              [13.32152609, 52.5605763],
              [13.31912722, 52.56026786],
              [13.31828826, 52.56014838],
              [13.3173006, 52.55998899],
              [13.31665902, 52.55987325],
              [13.31582169, 52.55970565],
              [13.31199495, 52.55888093],
              [13.31188097, 52.55908004],
              [13.31067033, 52.56372314],
              [13.31078605, 52.56493048],
              [13.31079506, 52.56502458]
            ]
          ]
        ]
      }
    }
  ]
}
